[
    {
        "Altitude(m)": 624790.8188078669,
        "Argument of Periapsis(deg)": 0.0,
        "Eccentricity": 0.0,
        "Inclination(deg)": 60.0,
        "Latitude(deg)": -59.14718758051376,
        "Longitude(deg)": -18.965222355266082,
        "Mean Anomaly(deg)": -81.81819999999999,
        "RAAN(deg)": 155.0,
        "Satellite Name": "Test1 699",
        "Satellite Number": 699,
        "Semi-Major Axis(m)": 6980739.136638005,
        "Time(s)": 0
    },
    {
        "Altitude(m)": 624737.4732753286,
        "Argument of Periapsis(deg)": 0.00010418945913296404,
        "Eccentricity": 0.0,
        "Inclination(deg)": 60.0,
        "Latitude(deg)": -58.99464070248483,
        "Longitude(deg)": -17.84571905322184,
        "Mean Anomaly(deg)": -81.19809385453813,
        "RAAN(deg)": 154.99957995086027,
        "Satellite Name": "Test1 699",
        "Satellite Number": 699,
        "Semi-Major Axis(m)": 6980739.136638005,
        "Time(s)": 10
    }
]